{"type": "FeatureCollection", "features": [{"type": "Feature", "properties": {"SECCION": 877, "municipio": 109}, "geometry": {"type": "Polygon", "coordinates": [[[-97.61588274948988, 19.381007227891388], [-97.61571508589222, 19.381305079190298], [-97.61556672328808, 19.3815624181105], [-97.61537428194151, 19.381920458196895], [-97.61511070646742, 19.38238500000515], [-97.61505332460973, 19.382493469120448], [-97.61491064381964, 19.382763178332127], [-97.61472871774302, 19.383072990613115], [-97.61470874241357, 19.38310700765107], [-97.61447534994653, 19.383525325304298], [-97.60820104003535, 19.381480364297182], [-97.60777154671764, 19.381294341573113], [-97.60753611308563, 19.38117859221232], [-97.60974296405749, 19.377613071159892], [-97.60573146810265, 19.377177706624135], [-97.60642357764416, 19.37252052442584], [-97.60803888216432, 19.37270051425406], [-97.61298291132883, 19.373251325621958], [-97.61338064282691, 19.373335411323254], [-97.61402620418147, 19.373543657015958], [-97.6145653465142, 19.37368667871475], [-97.6149047955193, 19.373903847042357], [-97.61534028783477, 19.374164465307505], [-97.61577294301473, 19.374414544358885], [-97.6161744534746, 19.374644411299435], [-97.61659006715679, 19.37488561300144], [-97.61699955772752, 19.37513903104314], [-97.61743512780549, 19.37539123658016], [-97.61787251376744, 19.375638409756874], [-97.61830274948507, 19.37589309541389], [-97.61871887473364, 19.376140105229222], [-97.61920299491767, 19.376414537808746], [-97.61967029731557, 19.376687159862175], [-97.62014354806773, 19.376963820004725], [-97.6199231529431, 19.377352072383726], [-97.61973074599491, 19.377689927888383], [-97.61952430100334, 19.378052432509016], [-97.61933011511346, 19.378393417815364], [-97.61913833383004, 19.378730189175478], [-97.61890681470902, 19.379137211020186], [-97.61870783117378, 19.379486069565473], [-97.61815531200277, 19.37937899982424], [-97.61754137395447, 19.379260025939278], [-97.61694101455869, 19.379143830753254], [-97.61652062339488, 19.379873995109563], [-97.61623176965584, 19.380399594538382], [-97.61618514159915, 19.38047820915662], [-97.61602358602028, 19.380750547900067], [-97.61588274948988, 19.381007227891388]]]}}, {"type": "Feature", "properties": {"SECCION": 878, "municipio": 109}, "geometry": {"type": "Polygon", "coordinates": [[[-97.62014354806773, 19.376963820004725], [-97.61967029731557, 19.376687159862175], [-97.61920299491767, 19.376414537808746], [-97.61871887473364, 19.376140105229222], [-97.61830274948507, 19.37589309541389], [-97.61787251376744, 19.375638409756874], [-97.61743512780549, 19.37539123658016], [-97.61699955772752, 19.37513903104314], [-97.61659006715679, 19.37488561300144], [-97.6161744534746, 19.374644411299435], [-97.61577294301473, 19.374414544358885], [-97.61534028783477, 19.374164465307505], [-97.6149047955193, 19.373903847042357], [-97.6145653465142, 19.37368667871475], [-97.61402620418147, 19.373543657015958], [-97.61338064282691, 19.373335411323254], [-97.61298291132883, 19.373251325621958], [-97.61306759449768, 19.37289413648763], [-97.61368661284924, 19.372989351330222], [-97.61380174364953, 19.37039154111847], [-97.61411938795582, 19.370582246410574], [-97.61465607263372, 19.37090513142632], [-97.61533601781484, 19.37131390959122], [-97.6157596161646, 19.371559796537813], [-97.61615277819622, 19.37178733423547], [-97.6166081326207, 19.372051356277723], [-97.61700131496282, 19.372276774037772], [-97.61742779942212, 19.3725236277583], [-97.61786315955203, 19.372776903077586], [-97.61827855819645, 19.373015197232213], [-97.6186961186699, 19.37326198040534], [-97.61910921645332, 19.373508728815207], [-97.6195735444195, 19.373768575249393], [-97.61995771804833, 19.374004510552464], [-97.6204401268914, 19.374283322663807], [-97.62089444760603, 19.374550595338462], [-97.621039816727, 19.374634201002397], [-97.62136787763565, 19.374834096476043], [-97.62117781989842, 19.37519476408848], [-97.62094170003242, 19.375556920449363], [-97.62074790523623, 19.375896593904624], [-97.62054258568888, 19.37626359895766], [-97.62033529345368, 19.376615093551948], [-97.62014354806773, 19.376963820004725]]]}}, {"type": "Feature", "properties": {"SECCION": 875, "municipio": 109}, "geometry": {"type": "Polygon", "coordinates": [[[-97.64031040184837, 19.388824228121116], [-97.64036830702152, 19.388866051248893], [-97.64048322482851, 19.389155119131335], [-97.64059760749555, 19.38956743996269], [-97.64059617941756, 19.38989611463684], [-97.64042103430033, 19.39009932000183], [-97.64001283710193, 19.390463906887277], [-97.63972116442403, 19.39074780220534], [-97.63954512330793, 19.391156428144058], [-97.63960124115911, 19.391609094650313], [-97.63989094975402, 19.391777127118505], [-97.64023910106808, 19.391863729422216], [-97.64064444493474, 19.39215649147611], [-97.64116506824722, 19.392656151610755], [-97.64139669522602, 19.392823443245266], [-97.6422093532888, 19.392957034049093], [-97.64302058919758, 19.393419296160513], [-97.64336732292463, 19.393834567659177], [-97.64348171545622, 19.394246887107833], [-97.64319093095386, 19.394325366057036], [-97.64278308443212, 19.394607790037863], [-97.64255020676758, 19.39472809037323], [-97.64243367874222, 19.394808782591312], [-97.64231732877474, 19.394848390387903], [-97.64179348582033, 19.395088251001003], [-97.64132808431624, 19.39524667998875], [-97.64097903264269, 19.395365500909822], [-97.64074668841589, 19.395362545844016], [-97.64028217873715, 19.395315550518713], [-97.63999210616008, 19.395229686933348], [-97.63941088857115, 19.39530446417106], [-97.63900339157192, 19.395504710530822], [-97.6388278799847, 19.395790082312022], [-97.63847864648068, 19.395949982515877], [-97.63818857394192, 19.395864116046834], [-97.63772388468396, 19.395858198404092], [-97.63725937499716, 19.39581119532228], [-97.63690996056958, 19.396012176662165], [-97.63638610689974, 19.396252020951366], [-97.6358048847788, 19.396326786327347], [-97.63522294232942, 19.39656588667888], [-97.63487334391755, 19.39680794804652], [-97.63446565800425, 19.397049267836], [-97.63411677857405, 19.397126990820645], [-97.63388398174268, 19.397226737317258], [-97.63365118464355, 19.397326483497267], [-97.63324367626595, 19.397526716162982], [-97.6331267809131, 19.39768957034424], [-97.6328926283043, 19.398097446773832], [-97.63260111021833, 19.398340244687294], [-97.63248367150132, 19.398626350855384], [-97.63230850676254, 19.39882954703069], [-97.63201716732668, 19.39903125970242], [-97.63160983374684, 19.399190404140317], [-97.63114441220887, 19.39934880566723], [-97.63067953336373, 19.39938395355572], [-97.63021392922992, 19.39958343672927], [-97.62992276740407, 19.399744061670898], [-97.62939834801625, 19.400107136685524], [-97.62904855222384, 19.40039026986623], [-97.62858257999285, 19.400671916722146], [-97.62794106985291, 19.401238921861225], [-97.62779484971934, 19.401463026659307], [-97.62764862917226, 19.401687131309814], [-97.62764735531968, 19.401974719794982], [-97.62764644540117, 19.40218014013597], [-97.62765828187057, 19.402302877202143], [-97.62770198585766, 19.402756060204577], [-97.62770089395012, 19.40300256459773], [-97.62764098547389, 19.403412662084182], [-97.6275810766287, 19.403822759514455], [-97.6275801664589, 19.404028179808773], [-97.62705472537017, 19.404563295224797], [-97.62647900791782, 19.403896833302717], [-97.62480522157819, 19.402271159645316], [-97.62255635294476, 19.399937502946376], [-97.62100018620015, 19.39827080744697], [-97.62031213148144, 19.39727184943503], [-97.61996581519226, 19.396938355760884], [-97.61985859002125, 19.396232407360152], [-97.61962695027515, 19.396065406551216], [-97.61952029997356, 19.39531796147263], [-97.61917742820395, 19.394735487375275], [-97.61924737323585, 19.39390581044403], [-97.61928175852992, 19.391416017743868], [-97.61147803693724, 19.40161902558748], [-97.60985416488091, 19.400180436613812], [-97.60964723822033, 19.39999270274045], [-97.60817857781183, 19.3986606777981], [-97.60803677355817, 19.398512692334556], [-97.6070309202125, 19.39746716687823], [-97.6050829161913, 19.39544237350082], [-97.60631770846749, 19.394459217221204], [-97.60620307929588, 19.394333843422842], [-97.60597213595013, 19.394207397542942], [-97.60551081232394, 19.393913071003315], [-97.60522339920823, 19.393661786189714], [-97.60476207853026, 19.393367457912014], [-97.60406925726063, 19.392988114383652], [-97.60389759889716, 19.39277933479494], [-97.6039009729064, 19.392530731176322], [-97.60408218986706, 19.39203513375349], [-97.60420243827507, 19.391746169265193], [-97.60443843636587, 19.391499711566105], [-97.60473427611232, 19.391129488001255], [-97.60421057720816, 19.384577967902857], [-97.60418731774328, 19.384286982909828], [-97.60384120700597, 19.384076594424847], [-97.60366843308651, 19.383950682968152], [-97.60326585729865, 19.38361545502221], [-97.60312088445573, 19.38352732994477], [-97.60300636036432, 19.383457713696934], [-97.60753611308563, 19.38117859221232], [-97.60777154671764, 19.381294341573113], [-97.60820104003535, 19.381480364297182], [-97.61447534994653, 19.383525325304298], [-97.61470874241357, 19.38310700765107], [-97.61472871774302, 19.383072990613115], [-97.61491064381964, 19.382763178332127], [-97.61505332460973, 19.382493469120448], [-97.61511070646742, 19.38238500000515], [-97.61537428194151, 19.381920458196895], [-97.61556672328808, 19.3815624181105], [-97.61571508589222, 19.381305079190298], [-97.61588274948988, 19.381007227891388], [-97.6167150131836, 19.38124847148709], [-97.61743763569761, 19.38144537570915], [-97.61795894006589, 19.38159724530225], [-97.61871801626893, 19.38182052299814], [-97.61960402357563, 19.382008924565064], [-97.61965149947392, 19.38201901975992], [-97.6196609822109, 19.381968746021126], [-97.61969483205596, 19.381789287162157], [-97.62063654273229, 19.382083045301865], [-97.62118247059443, 19.38081197027813], [-97.62130774391493, 19.380473554500846], [-97.62132999158499, 19.380413454041793], [-97.621341166949, 19.380386293539605], [-97.6214928133981, 19.380017732348932], [-97.62154103101437, 19.37990500406081], [-97.62157618198306, 19.379825105960453], [-97.62332185597398, 19.375421414048486], [-97.62341551959685, 19.37547222504522], [-97.62364684954723, 19.375597717459677], [-97.62383886956172, 19.375699715257888], [-97.62417386417172, 19.375901953979223], [-97.62459621344581, 19.376164732397744], [-97.62502029934663, 19.376408515504608], [-97.62546134443093, 19.376670137056067], [-97.62590039352095, 19.376929677022815], [-97.62626664181631, 19.377146180046797], [-97.62632103300547, 19.376985652755643], [-97.62671751731874, 19.375831845983924], [-97.62796429018894, 19.374124650267827], [-97.6290291368892, 19.372050161287262], [-97.62861613890675, 19.371886769496783], [-97.62813915781634, 19.371741613030814], [-97.6277497749004, 19.37161377019461], [-97.62721176345451, 19.371422351916127], [-97.62649445184664, 19.371162961880078], [-97.62620600345603, 19.37103171406285], [-97.62580823429231, 19.37085800469636], [-97.62550648698387, 19.370743309666867], [-97.62526159398541, 19.37064986146979], [-97.62524191558985, 19.370642405706665], [-97.62494236510244, 19.370528163860005], [-97.62546298550228, 19.369782241243445], [-97.62556083330782, 19.369629014181864], [-97.62575133229637, 19.369637165408246], [-97.62592922168146, 19.369644776904295], [-97.62639630985143, 19.369664761752187], [-97.62697889123369, 19.369261347091182], [-97.6273874223117, 19.36881461875606], [-97.627911922138, 19.368410458240504], [-97.62866872357613, 19.368009264458742], [-97.62919267486997, 19.3677283526038], [-97.6295418541862, 19.367568466631763], [-97.63006616418207, 19.36720538354522], [-97.63070698442084, 19.366761613064217], [-97.63111477734883, 19.366479212370614], [-97.63140605716907, 19.366277496972028], [-97.63175541172751, 19.366076522110642], [-97.63216230025331, 19.365999540348458], [-97.63256918845623, 19.365922557652503], [-97.63315084235224, 19.36572454292406], [-97.6339074398511, 19.365364410028263], [-97.63437311964334, 19.36512382610885], [-97.63501374127196, 19.36472112350661], [-97.63553767203783, 19.364440191975532], [-97.63571243476042, 19.3643191581916], [-97.63582894310176, 19.364238468899483], [-97.63617810914302, 19.364078569283553], [-97.63658570743975, 19.36383723964967], [-97.63676046878372, 19.363716204765165], [-97.63699384139696, 19.363472655845932], [-97.63722685555716, 19.36331127537388], [-97.63728493016343, 19.363312014602712], [-97.63734318362052, 19.363271669413862], [-97.63757637595492, 19.36306920404863], [-97.63798396979487, 19.362827870978684], [-97.6382750565106, 19.362667228011844], [-97.63874072271926, 19.362426631988953], [-97.63932235780533, 19.36222859625009], [-97.65448326248948, 19.354608871686835], [-97.66739820430719, 19.362361043449766], [-97.66697545065347, 19.363355321241862], [-97.6667966708252, 19.363603593193115], [-97.66614618580114, 19.3641404439597], [-97.66491265148126, 19.364550415863228], [-97.66484464209705, 19.365255635177522], [-97.66483230013993, 19.36616858045796], [-97.66394060819675, 19.3672439353284], [-97.66375957410445, 19.367658193605322], [-97.66387090890115, 19.368073646213205], [-97.6640997536937, 19.368448078930122], [-97.664557446303, 19.369196943642727], [-97.66472669737954, 19.369654132006616], [-97.66471323055382, 19.370650071766107], [-97.66453051047465, 19.371188822998906], [-97.66416731159171, 19.372100334723772], [-97.66397336054283, 19.373469034381408], [-97.66350274589169, 19.373674609425677], [-97.6626250448474, 19.37371251813638], [-97.66110242196312, 19.37387227726774], [-97.65992784093997, 19.374240952310938], [-97.65857501268974, 19.374816384176786], [-97.65734194379036, 19.375184801006384], [-97.65558314523993, 19.37550953735664], [-97.65531436517658, 19.375923422477847], [-97.65504558371185, 19.376337307101977], [-97.65527441788326, 19.376711750072655], [-97.65567924761608, 19.377045420679654], [-97.65660079660951, 19.378086718062743], [-97.65747401570358, 19.378380818489052], [-97.65887578799875, 19.37851109260366], [-97.66027250147107, 19.379014832363964], [-97.66113898660564, 19.379806884396654], [-97.66082691525136, 19.381258092158088], [-97.66017577565003, 19.381836412560975], [-97.65963990150195, 19.38253970344917], [-97.65910120862152, 19.383450479061068], [-97.65897355580054, 19.38423844667426], [-97.65902359268264, 19.38486114724332], [-97.65924794440646, 19.385567564682], [-97.65905899516251, 19.386562777922403], [-97.65926212900811, 19.386677738258527], [-97.65936369604152, 19.38673521834735], [-97.65946526314869, 19.386792698383346], [-97.657334934435, 19.38764302525763], [-97.65698800120235, 19.38726886339237], [-97.6566407206741, 19.38697687015565], [-97.65652490262124, 19.386893233811733], [-97.65611971494315, 19.38655942147835], [-97.65588842932192, 19.38630997892752], [-97.65565731906486, 19.38601945152456], [-97.65542603489529, 19.385770008459183], [-97.6552521353282, 19.38568563746249], [-97.65484520465857, 19.385762668411036], [-97.6545535650305, 19.38604658972727], [-97.65443617400054, 19.386332713309923], [-97.65408679946422, 19.38653373036871], [-97.65396888192181, 19.38694310725305], [-97.65356089641192, 19.387266642424734], [-97.65338629536065, 19.3873466078262], [-97.65303761881434, 19.38738328445768], [-97.65292127635675, 19.387422899546458], [-97.65257295052919, 19.387377406194023], [-97.6519340318211, 19.387369321645476], [-97.65117894635003, 19.38735976428904], [-97.6503654256808, 19.38743163725508], [-97.64966824772611, 19.387463893657376], [-97.64891316258127, 19.387454326872156], [-97.6483321515292, 19.38748805014552], [-97.64751862982216, 19.38755991025788], [-97.64693726464304, 19.387675797926423], [-97.6461228563573, 19.387953073862455], [-97.64548305097487, 19.388150388634045], [-97.64449491968952, 19.388302192247668], [-97.64374036550817, 19.3881693505851], [-97.64304389626939, 19.38803724378527], [-97.64240533375501, 19.387946956878316], [-97.64176641572611, 19.387938836492975], [-97.6414177368017, 19.387975490602642], [-97.64089391537807, 19.38821535005331], [-97.64083556422162, 19.38827623795796], [-97.64077721302151, 19.388337125840952], [-97.64048536710669, 19.38866210709795], [-97.64031040184837, 19.388824228121116]]]}}, {"type": "Feature", "properties": {"SECCION": 876, "municipio": 109}, "geometry": {"type": "Polygon", "coordinates": [[[-97.64952943859433, 19.429226170141312], [-97.64840180485892, 19.42826696396439], [-97.6472741844592, 19.427307751479255], [-97.64349127225118, 19.423990774763304], [-97.63900897707215, 19.4200105209729], [-97.63739624065384, 19.418177712604713], [-97.63630312402744, 19.416845092491105], [-97.63371891237516, 19.413348154377356], [-97.63239931310036, 19.411475058492208], [-97.62958474079933, 19.407728090196038], [-97.62943960679173, 19.40754255659706], [-97.62763044745391, 19.40522975556201], [-97.62705472537017, 19.404563295224797], [-97.6275801664589, 19.404028179808773], [-97.6275810766287, 19.403822759514455], [-97.62764098547389, 19.403412662084182], [-97.62770089395012, 19.40300256459764], [-97.62770198585766, 19.402756060204577], [-97.62765828187057, 19.402302877202143], [-97.62764644540117, 19.40218014013597], [-97.62764735531968, 19.401974719794982], [-97.62764862917226, 19.401687131309814], [-97.62779484971934, 19.401463026659307], [-97.62794106985291, 19.401238921861225], [-97.62858257999285, 19.400671916722146], [-97.62904855222384, 19.40039026986623], [-97.62939834801625, 19.400107136685524], [-97.62992276740407, 19.399744061670898], [-97.63021392922992, 19.39958343672927], [-97.63067953336373, 19.39938395355572], [-97.63114441220887, 19.39934880566723], [-97.63160983374684, 19.399190404140317], [-97.63201716732668, 19.39903125970242], [-97.63230850676254, 19.39882954703069], [-97.63248367150132, 19.398626350855384], [-97.63260111021833, 19.398340244687294], [-97.6328926283043, 19.398097446773832], [-97.6331267809131, 19.39768957034424], [-97.63324367626595, 19.397526716162982], [-97.63365118464355, 19.397326483497267], [-97.63388398174268, 19.397226737317258], [-97.63411677857405, 19.397126990820645], [-97.63446565800425, 19.397049267836], [-97.63487334391755, 19.39680794804652], [-97.63522294232942, 19.39656588667888], [-97.6358048847788, 19.396326786327347], [-97.63638610689974, 19.396252020951366], [-97.63690996056958, 19.396012176662165], [-97.63725937499716, 19.39581119532228], [-97.63772388468396, 19.395858198404092], [-97.63818857394192, 19.395864116046834], [-97.63847864648068, 19.395949982515877], [-97.6388278799847, 19.395790082312022], [-97.63900339157192, 19.395504710530822], [-97.63941088857115, 19.39530446417106], [-97.63999210616008, 19.395229686933348], [-97.64028217873715, 19.395315550518713], [-97.64074668841589, 19.395362545844016], [-97.64097903264269, 19.395365500909822], [-97.64132808431624, 19.39524667998875], [-97.64179348582033, 19.395088251001003], [-97.64231732877474, 19.394848390387903], [-97.64243367874222, 19.394808782591312], [-97.64255020676758, 19.39472809037323], [-97.64278308443212, 19.394607790037863], [-97.64319093095386, 19.394325366057036], [-97.64348171545622, 19.394246887107833], [-97.64336732292463, 19.393834567659177], [-97.64302058919758, 19.393419296160513], [-97.6422093532888, 19.392957034049093], [-97.64139669522602, 19.392823443245266], [-97.64116506824722, 19.392656151610755], [-97.64064444493474, 19.39215649147611], [-97.64023910106808, 19.391863729422216], [-97.63989094975402, 19.391777127118505], [-97.63960124115911, 19.391609094650313], [-97.63954512330793, 19.391156428144058], [-97.63972116442403, 19.39074780220534], [-97.64001283710193, 19.390463906887277], [-97.64042103430033, 19.39009932000183], [-97.64059617941756, 19.38989611463684], [-97.64059760749555, 19.38956743996269], [-97.64048322482851, 19.389155119131335], [-97.64036830702152, 19.388866051248893], [-97.64031040184838, 19.388824228121116], [-97.64048536710669, 19.38866210709795], [-97.64077721302151, 19.388337125840952], [-97.64083556422162, 19.38827623795796], [-97.64089391537807, 19.38821535005331], [-97.6414177368017, 19.387975490602642], [-97.64176641572611, 19.387938836492975], [-97.64240533375501, 19.387946956878316], [-97.64304389626939, 19.38803724378527], [-97.64374036550817, 19.3881693505851], [-97.64449491968952, 19.388302192247668], [-97.64548305097487, 19.388150388634045], [-97.6461228563573, 19.387953073862455], [-97.64693726464304, 19.387675797926423], [-97.64751862982216, 19.38755991025788], [-97.6483321515292, 19.38748805014552], [-97.64891316258127, 19.387454326872156], [-97.64966824772611, 19.387463893657376], [-97.6503654256808, 19.38743163725508], [-97.65117894635003, 19.38735976428904], [-97.6519340318211, 19.387369321645476], [-97.65257295052919, 19.387377406194023], [-97.65292127635675, 19.387422899546458], [-97.65303761881435, 19.38738328445768], [-97.65338629536065, 19.3873466078262], [-97.65356089641192, 19.387266642424734], [-97.65396888192181, 19.38694310725305], [-97.65408679946422, 19.38653373036871], [-97.65443617400054, 19.386332713309923], [-97.6545535650305, 19.38604658972727], [-97.65484520465857, 19.385762668411036], [-97.6552521353282, 19.38568563746249], [-97.65542603489529, 19.385770008459183], [-97.65565731906486, 19.38601945152456], [-97.65588842932192, 19.38630997892752], [-97.65611971494315, 19.38655942147835], [-97.65652490262124, 19.386893233811733], [-97.6566407206741, 19.38697687015565], [-97.65698800120235, 19.38726886339237], [-97.657334934435, 19.38764302525763], [-97.65946526314869, 19.386792698383346], [-97.65956115769944, 19.3868472604546], [-97.65987130859834, 19.387023729500143], [-97.6603403368676, 19.386986050648414], [-97.66360980271888, 19.387369954416627], [-97.66393032411985, 19.38745426542837], [-97.66425084588549, 19.387538575893842], [-97.6644532830026, 19.387705402461847], [-97.66465572053596, 19.38787222882597], [-97.66482021530601, 19.388682145308813], [-97.66498471144831, 19.389492061669568], [-97.66502747276296, 19.390654227917278], [-97.66477838330682, 19.39177370147367], [-97.66465383711946, 19.392333437997355], [-97.66452928995915, 19.392893174351357], [-97.6645239544715, 19.393287399460654], [-97.66451861889531, 19.393681624551554], [-97.66420429549262, 19.395298825625822], [-97.66404881651222, 19.395982933642834], [-97.66389333605127, 19.39666704139922], [-97.66400665248469, 19.396937253100198], [-97.6641199692675, 19.397207464745016], [-97.66429261354878, 19.397415669670234], [-97.66498319500083, 19.39824848794641], [-97.66538725401705, 19.398644386587325], [-97.66548826907602, 19.39874336112272], [-97.66560763376435, 19.39884287497651], [-97.66569472608562, 19.398936476608807], [-97.66579131498477, 19.399040284429326], [-97.66602188705602, 19.399290224196662], [-97.66625245982587, 19.399540163706572], [-97.66586528781376, 19.400057328447282], [-97.66547811330028, 19.400574492188696], [-97.6648224138888, 19.401484803228932], [-97.66386977992948, 19.402725892210146], [-97.66298180261096, 19.403510744776607], [-97.66273492321233, 19.404464222810375], [-97.66319494797676, 19.405047104509784], [-97.6640649496718, 19.405590165600188], [-97.66435570079483, 19.40571585534987], [-97.66464645238915, 19.405841544659204], [-97.66461383744073, 19.406090408874938], [-97.66458122236837, 19.406339273072295], [-97.66392549294675, 19.40724957863971], [-97.6636274316464, 19.40766335294197], [-97.66279285178447, 19.408821917810585], [-97.66273155125488, 19.409029164085197], [-97.66242729605342, 19.40989940588727], [-97.66242673355045, 19.409940903150705], [-97.66242223349126, 19.410272881250926], [-97.66253583661526, 19.410522345261516], [-97.66276360628133, 19.410979775847085], [-97.66275291976154, 19.411768223838745], [-97.66263031572761, 19.4121827160578], [-97.66237666684862, 19.41363415878284], [-97.66194641499449, 19.41516787373558], [-97.66158308821221, 19.416079369321007], [-97.66061907605271, 19.418150376719513], [-97.65995313398784, 19.41980761182204], [-97.65953410890704, 19.420511374503327], [-97.65952960126351, 19.420843351787944], [-97.65993510689475, 19.421135521231875], [-97.66022137490094, 19.421593196201666], [-97.66067636564998, 19.4225495601027], [-97.66078434148699, 19.423213996954026], [-97.6608321346065, 19.424002684227077], [-97.66022860497405, 19.425369679001857], [-97.65981125566337, 19.425948949696465], [-97.65922180094691, 19.426278511695124], [-97.65845234880271, 19.42693932303041], [-97.65750514871334, 19.427765392571576], [-97.65668170199244, 19.4280939766418], [-97.65650621621894, 19.42809324916541], [-97.65381374079305, 19.428206564353463], [-97.65235022951346, 19.428283467691593], [-97.65182264138072, 19.428364266122866], [-97.65129505282565, 19.428445062988366], [-97.6502398744487, 19.428606652021717], [-97.64952943859433, 19.429226170141312]]]}}, {"type": "Feature", "properties": {"SECCION": 879, "municipio": 109}, "geometry": {"type": "Polygon", "coordinates": [[[-97.60300636036432, 19.383457713696934], [-97.60285763514844, 19.38336623598566], [-97.60251605138139, 19.383152703395826], [-97.60240030757959, 19.383110195628998], [-97.60211235481576, 19.382900341035775], [-97.60205363915925, 19.38294123796115], [-97.60134848625376, 19.383473433360066], [-97.60117177519571, 19.383637557178105], [-97.60064276585688, 19.38404705962266], [-97.59970273643297, 19.384742833353698], [-97.59911669294273, 19.385068925249975], [-97.59788870009507, 19.38555482906599], [-97.59700793285842, 19.386168258227023], [-97.59565741054232, 19.38710884043868], [-97.59267515193989, 19.388282897335646], [-97.59150357693534, 19.38889359646243], [-97.59039128003009, 19.3894219609739], [-97.58922195304623, 19.389866909575193], [-97.58851899520135, 19.390233315697955], [-97.58781376889516, 19.390765453451383], [-97.58699279334536, 19.39125507049957], [-97.58622996883341, 19.39174522579978], [-97.58564784405125, 19.391781235602373], [-97.5846004728852, 19.39181290164874], [-97.58372586675837, 19.391970491653623], [-97.58296813853804, 19.392087730512632], [-97.58267565632681, 19.392209314202418], [-97.58238317370773, 19.39233089739237], [-97.58191054391101, 19.392865184307194], [-97.58190600066617, 19.393196652440764], [-97.58223733492198, 19.394484353415685], [-97.58240896586074, 19.394693151800357], [-97.58303620151896, 19.39561066761907], [-97.5833794681327, 19.39602826296862], [-97.58320102290335, 19.396316667692247], [-97.58301292597898, 19.397309442026973], [-97.58300781648367, 19.397682343680604], [-97.58287844219659, 19.398634227510918], [-97.58281460605257, 19.39904801906062], [-97.58216748121951, 19.3995806743773], [-97.57966666850182, 19.399557275468418], [-97.57874182275567, 19.399134225856056], [-97.57804904525895, 19.39875478561996], [-97.57729583643024, 19.398540531261173], [-97.57572841961222, 19.398318634631046], [-97.57496780940095, 19.398643004627278], [-97.57438224044009, 19.39892757668849], [-97.57373224020687, 19.399667366915065], [-97.57291232112789, 19.400074047759535], [-97.57220928574512, 19.400440385301746], [-97.57162427663097, 19.400683514419633], [-97.57103926588555, 19.40092664153679], [-97.57057171287177, 19.40108799518075], [-97.56993025387268, 19.401206271255496], [-97.5685424451847, 19.400613055687455], [-97.56761190964008, 19.400604283025075], [-97.5671460702293, 19.400641328106463], [-97.56656219791671, 19.400801574019724], [-97.56621210285668, 19.40088114735942], [-97.56539158892895, 19.40132922579286], [-97.56521367910865, 19.401576177145902], [-97.5652062389605, 19.402114808151417], [-97.56514407362047, 19.40240429095585], [-97.56502374889212, 19.402693224409923], [-97.56479225726008, 19.4026081607144], [-97.56421524705607, 19.402271200850873], [-97.56369525272774, 19.40201765527578], [-97.5627761698442, 19.401180195130117], [-97.56122423562972, 19.39983947969167], [-97.5601877152796, 19.399083773068774], [-97.55944199183983, 19.398330816328603], [-97.55921682092274, 19.397789982451005], [-97.55887763259256, 19.397082313866772], [-97.55853844702315, 19.396374644784764], [-97.55831729892012, 19.395543778696503], [-97.55815143913152, 19.394920629000193], [-97.55793086845816, 19.39404832951598], [-97.55782488894134, 19.393301431826], [-97.55754559225544, 19.392470013632337], [-97.55738145998383, 19.391722564270307], [-97.55716089657311, 19.390850264095985], [-97.55711135373454, 19.390228216784287], [-97.55706353344969, 19.389481870282395], [-97.55730533513245, 19.388821147421666], [-97.5574878329644, 19.388242738817347], [-97.55779237544355, 19.387251101754035], [-97.55792302832994, 19.386216377199162], [-97.55787463037095, 19.385511463516817], [-97.55793966883552, 19.38501481763747], [-97.55811986431141, 19.38460214013281], [-97.55841923186397, 19.383983398900366], [-97.55859942484413, 19.383570720724155], [-97.5590743912962, 19.38287076454127], [-97.55925228760717, 19.38262381799493], [-97.55936973808286, 19.382542053106118], [-97.55942903664194, 19.38245973749809], [-97.55966393707128, 19.382296207378626], [-97.55972552851942, 19.382048159099917], [-97.55990284968146, 19.38184264491844], [-97.5599932297067, 19.381615588310552], [-97.56008360946204, 19.381388531636055], [-97.55987864636992, 19.381490187948838], [-97.55967368303536, 19.381591844013215], [-97.55926547580765, 19.381670855999545], [-97.55891484630492, 19.381791850970394], [-97.55850606474259, 19.381912294312603], [-97.5577477992023, 19.382070863101667], [-97.557280864608, 19.382190752401055], [-97.55675462965611, 19.382392955131095], [-97.5559934895027, 19.3827586816772], [-97.55523464386687, 19.38295867261269], [-97.55447522195519, 19.38320009328943], [-97.55359604483955, 19.383689003701576], [-97.55300992395678, 19.384014941411937], [-97.55189985503016, 19.38437733295889], [-97.55096797984939, 19.38447206346385], [-97.55003610392957, 19.384566789121752], [-97.54852126382418, 19.384759551329715], [-97.54764782627994, 19.38483410227452], [-97.54700757415885, 19.384869434923953], [-97.54642893445619, 19.3846567229609], [-97.54579387478158, 19.384319155638963], [-97.54527512176938, 19.383982696699693], [-97.54446561178997, 19.383643459369647], [-97.54359275718889, 19.383676558289274], [-97.54301008403723, 19.383753865635573], [-97.54242683277538, 19.38387260387142], [-97.54155282141397, 19.38398855844774], [-97.54114460231108, 19.38406752877784], [-97.54038747146994, 19.384143157886104], [-97.53940062487519, 19.38400939193308], [-97.53864580863257, 19.383919282871144], [-97.53748393145868, 19.383825267357107], [-97.53666980774408, 19.38381745788321], [-97.53608887030802, 19.383770444789885], [-97.53492351931139, 19.383925008974476], [-97.53416870726731, 19.383834881510925], [-97.53352961948035, 19.383787301525683], [-97.53150244125553, 19.383187670695246], [-97.53075228049194, 19.382766068829202], [-97.52964857074075, 19.38267256387026], [-97.52848613052116, 19.382619924290445], [-97.52703293666978, 19.382564472557164], [-97.52639618457374, 19.382351138011618], [-97.52546868033092, 19.382134994120545], [-97.52420100856676, 19.381293987976534], [-97.52350320325903, 19.38128724412823], [-97.52234077768948, 19.381234566030205], [-97.5217022893423, 19.38114551295571], [-97.5209498335204, 19.38088960237377], [-97.5202549471342, 19.380675684326683], [-97.51973334613328, 19.380546318394003], [-97.51857559794607, 19.38016215792001], [-97.51782256854013, 19.379947667319147], [-97.51695733016693, 19.379442019291496], [-97.51632177400548, 19.379145786465752], [-97.5151076492226, 19.378636743858802], [-97.51412554396836, 19.3781713861112], [-97.51360746601542, 19.37779340991586], [-97.51285913549455, 19.377247441948185], [-97.51280098678386, 19.37724687653363], [-97.51240038231502, 19.376787163588407], [-97.51176543079762, 19.37644948376515], [-97.51142063798278, 19.376156063523435], [-97.51090257287176, 19.37577808038014], [-97.51038568140424, 19.375317231511556], [-97.50946410172007, 19.374686688035442], [-97.5089472178185, 19.374225835524257], [-97.50837453378236, 19.373598686311276], [-97.50821682664251, 19.373441757066313], [-97.50805911980379, 19.373284827702147], [-97.50874823671626, 19.372579639398467], [-97.50900577105126, 19.372316096568227], [-97.50923996835404, 19.371949478169856], [-97.50929867583484, 19.371827011877492], [-97.50953223862541, 19.37158363953962], [-97.50959136777972, 19.371379008757366], [-97.5096496527683, 19.37133870668378], [-97.50976643363201, 19.37121702028671], [-97.50982471852112, 19.371176718149723], [-97.51017379467626, 19.371058151479847], [-97.5105809442265, 19.370940363909103], [-97.51069709194647, 19.37094192346179], [-97.51110403028457, 19.37086521688747], [-97.51127846241596, 19.370826473466675], [-97.51156925264729, 19.370748206640325], [-97.51174347411008, 19.370750544982574], [-97.51238228628813, 19.37075911747938], [-97.51273030895418, 19.370845956928168], [-97.51319490009996, 19.370852189193467], [-97.51319468999593, 19.370893271443943], [-97.51342698567304, 19.370896387136682], [-97.51377500932644, 19.370983224641737], [-97.51418173697805, 19.37094759336121], [-97.51464695796187, 19.370830575113548], [-97.51487935855495, 19.370813147807333], [-97.51511175912034, 19.370795720200984], [-97.51551890527011, 19.370677921295634], [-97.51581074091224, 19.370394236043964], [-97.51610215682008, 19.370192714859396], [-97.51662649446479, 19.36987105773628], [-97.51691790848771, 19.36966953510551], [-97.51720932180997, 19.369468011956194], [-97.51773386402432, 19.369105268980416], [-97.51802548423875, 19.368862662033663], [-97.51825882155252, 19.368660359623938], [-97.51855044021141, 19.36841775172032], [-97.51901711172155, 19.368013145023657], [-97.51971544745804, 19.36773489146456], [-97.52035549984126, 19.367496940866005], [-97.52087898859637, 19.367339599880786], [-97.5214020604956, 19.36726442214547], [-97.52163539153848, 19.367062114944453], [-97.52186872200893, 19.366859807401873], [-97.52210163632809, 19.36673966437215], [-97.52236306734311, 19.366722615070646], [-97.52262449833115, 19.36670556538996], [-97.5229716891155, 19.36695671483996], [-97.52314528491435, 19.367082289340395], [-97.52337653892, 19.36729080422194], [-97.52337591647125, 19.36741405156278], [-97.52349169936905, 19.367487497074684], [-97.52360748237362, 19.367560942519187], [-97.52383904870308, 19.36770783320597], [-97.52459462055815, 19.367594665626665], [-97.52529253255332, 19.367398554865193], [-97.52581560354788, 19.367323364320274], [-97.5261057618097, 19.367368320843973], [-97.52656993275447, 19.367456683341736], [-97.52697665091368, 19.367421022679945], [-97.52749868930418, 19.367551239843934], [-97.52813646242757, 19.367765168898693], [-97.52830985709811, 19.367931821309284], [-97.52865747219938, 19.368100795549406], [-97.5290637797095, 19.368147295386667], [-97.52923799988858, 19.3681496168093], [-97.5295862343553, 19.36819534170802], [-97.52976004282851, 19.368279827745617], [-97.52993385148989, 19.368364313628096], [-97.53004876347941, 19.368612356074642], [-97.53027941157899, 19.368944110553816], [-97.53045239824839, 19.369192926253906], [-97.53074112185806, 19.369525453649906], [-97.53085583013662, 19.36981457825768], [-97.53085541882167, 19.36989674339315], [-97.53102902416151, 19.37002231093453], [-97.53120262977248, 19.37014787832604], [-97.53149238407381, 19.37027499182502], [-97.53172406458748, 19.370401331860307], [-97.53201361440698, 19.370569527166335], [-97.55564391200562, 19.36780946038493], [-97.57687511968025, 19.36532689233701], [-97.57710644463226, 19.36553534322889], [-97.57745449961918, 19.365622060419067], [-97.57768640727853, 19.365707260452947], [-97.57820829731553, 19.365878417799376], [-97.57855538559745, 19.366170550009972], [-97.57907824567359, 19.36613628791872], [-97.57936822912677, 19.366222243737944], [-97.57960033215313, 19.366266358018144], [-97.57994781045667, 19.366476320908806], [-97.58006337907891, 19.36660108631367], [-97.58029451684666, 19.36685061693163], [-97.58064238357014, 19.366978411737122], [-97.58075833927406, 19.367021009865052], [-97.58093198336908, 19.3671465320931], [-97.58110504868856, 19.367395304512378], [-97.58127811451845, 19.367644076793624], [-97.58145118085876, 19.367892848937064], [-97.58168270831757, 19.36806021110027], [-97.58185616138398, 19.368226816003006], [-97.58208749695083, 19.368435261160087], [-97.58231921857858, 19.368561539131328], [-97.58266689804118, 19.368730413840403], [-97.58289881316294, 19.36881560765354], [-97.58353667730142, 19.369029347449732], [-97.58373573106545, 19.36911660224272], [-97.58411627564959, 19.36928341230523], [-97.58457991725858, 19.369494879636385], [-97.58498529255775, 19.369746673331377], [-97.58510125149333, 19.36978926887449], [-97.58530422778892, 19.369853540029073], [-97.58550720425788, 19.369917810966808], [-97.5858554658402, 19.369963429402137], [-97.58620391944986, 19.369967963661182], [-97.58655294822171, 19.36984924667015], [-97.58701870234856, 19.369608789181118], [-97.58765829863944, 19.3694527631194], [-97.58794886732204, 19.36941545522936], [-97.5881809778894, 19.36945955898089], [-97.58864615528547, 19.36934234779171], [-97.58911190522348, 19.369101884646174], [-97.58934497068302, 19.368940569012437], [-97.59033587531373, 19.36817280668561], [-97.59080161963107, 19.36793233881877], [-97.59126850547875, 19.367445367960045], [-97.59167579094614, 19.367286310884985], [-97.59214134068226, 19.36708692291795], [-97.59219960566053, 19.367046592969515], [-97.59225806082479, 19.366965179363312], [-97.59244511695006, 19.366704655668002], [-97.59249188088603, 19.36663952470718], [-97.5922614845387, 19.366225673862477], [-97.59174052753924, 19.36584913766604], [-97.59156725647345, 19.365641458036496], [-97.59139398583989, 19.3654337782651], [-97.5911643556437, 19.364855591746917], [-97.59116759314718, 19.36415717003981], [-97.59116930702416, 19.363787417349627], [-97.59117044957212, 19.36354091554776], [-97.59111428043401, 19.363129325269536], [-97.59076831719219, 19.362590714123662], [-97.59071214923107, 19.362179123763767], [-97.5908284856597, 19.362139548178636], [-97.59088636815359, 19.362181385810285], [-97.59117654266538, 19.362226239157998], [-97.59135057132252, 19.36226958440649], [-97.5919886138799, 19.362442210159223], [-97.59216264303133, 19.362485554658114], [-97.5926845410768, 19.362656670853546], [-97.59303241044978, 19.362784442078333], [-97.59332220710274, 19.362911459452373], [-97.59395968552252, 19.36320732961738], [-97.59419197922792, 19.363210341592318], [-97.59477214507469, 19.36334112132249], [-97.59541076423918, 19.36339048443081], [-97.5961082142325, 19.36327626281048], [-97.59709584194174, 19.363206882570555], [-97.59779272415359, 19.363215905608588], [-97.59814116535794, 19.363220416128776], [-97.5986653355727, 19.362898510563028], [-97.59901415313206, 19.362820851834048], [-97.59936334711271, 19.362661024864092], [-97.59994502197513, 19.362463117968588], [-97.60104897915866, 19.36235413422902], [-97.60163027569277, 19.362238389375147], [-97.60197871543753, 19.362242892424796], [-97.60238485337742, 19.362330312796573], [-97.60250100005712, 19.362331813410055], [-97.60313999432604, 19.362298981621176], [-97.60383762351891, 19.362143645885492], [-97.6045348774735, 19.36207047512008], [-97.60523231785854, 19.361956217767368], [-97.60558094436314, 19.361919630006845], [-97.60598764403302, 19.361883790744727], [-97.60656912301373, 19.361726945889], [-97.60709196861167, 19.36169260203264], [-97.60744078069351, 19.361614926733026], [-97.60784822430749, 19.361414747551837], [-97.60796455680538, 19.361375160716744], [-97.60837144103513, 19.361298232077544], [-97.60889465711732, 19.36118171505142], [-97.60912694955216, 19.361184707801794], [-97.60964979338492, 19.36115035645443], [-97.61005649087376, 19.361114507922757], [-97.61023071021852, 19.361116751397713], [-97.6104337805898, 19.361160452541686], [-97.6106368510842, 19.36120415346552], [-97.61075299740654, 19.361205648767932], [-97.6109261043143, 19.361454395427973], [-97.61104002591267, 19.361948898250308], [-97.61109680152762, 19.362237233614117], [-97.61109531825709, 19.362565905392103], [-97.6111509816762, 19.363100744562576], [-97.61120683074282, 19.36359449973942], [-97.61143504905768, 19.364501337105523], [-97.61143208315426, 19.365158680578066], [-97.61148663573435, 19.365940023401798], [-97.61160019051744, 19.366516693860202], [-97.6117143019823, 19.366970112376144], [-97.61182934057575, 19.36721811102538], [-97.61200208435658, 19.36754902492682], [-97.61240583477989, 19.36817051563284], [-97.61338078508706, 19.369065594573975], [-97.61366452960745, 19.369309761661164], [-97.6151325304418, 19.369619129076405], [-97.61620196919223, 19.369842623982628], [-97.61668314857307, 19.369964316056066], [-97.617167477337, 19.370069327047858], [-97.61768781768528, 19.370196032367325], [-97.61813833494335, 19.370310587471227], [-97.61846980132559, 19.3697402714516], [-97.61995584964887, 19.37001405188796], [-97.62080463531878, 19.368539202298397], [-97.62298054763318, 19.369005688489835], [-97.62556083330782, 19.369629014181864], [-97.62546298550228, 19.369782241243445], [-97.62494236510244, 19.370528163860005], [-97.6249046021166, 19.370583670048912], [-97.62464289832577, 19.370986413397816], [-97.6246144881287, 19.371053589395142], [-97.62431239329695, 19.371656360068073], [-97.62382388354656, 19.371543540518697], [-97.62341012860321, 19.37145571773541], [-97.62319862241853, 19.371827830021534], [-97.6230245860378, 19.37212825407973], [-97.62278856251537, 19.37251460633714], [-97.62254610310481, 19.372920055604542], [-97.62226786981817, 19.373350541769128], [-97.62205964137422, 19.373713964845056], [-97.6220193455112, 19.37377462356814], [-97.62183479317694, 19.37405243569313], [-97.62159469446063, 19.374438475255083], [-97.62136787763565, 19.374834096476043], [-97.621039816727, 19.374634201002397], [-97.62089444760603, 19.374550595338462], [-97.6204401268914, 19.374283322663807], [-97.61995771804833, 19.374004510552464], [-97.6195735444195, 19.373768575249304], [-97.61910921645332, 19.373508728815207], [-97.6186961186699, 19.37326198040534], [-97.61827855819645, 19.373015197232213], [-97.61786315955203, 19.372776903077586], [-97.61742779942212, 19.3725236277583], [-97.61700131496282, 19.372276774037772], [-97.6166081326207, 19.372051356277723], [-97.61615277819622, 19.37178733423547], [-97.6157596161646, 19.371559796537813], [-97.61533601781484, 19.37131390959122], [-97.61465607263372, 19.37090513142632], [-97.61411938795582, 19.370582246410574], [-97.61380174364953, 19.37039154111847], [-97.61368661284924, 19.372989351330222], [-97.61306759449768, 19.37289413648763], [-97.61298291132883, 19.373251325621958], [-97.60803888216432, 19.37270051425406], [-97.60642357764416, 19.37252052442584], [-97.60573146810265, 19.377177706624135], [-97.60974296405749, 19.377613071159892], [-97.60753611308563, 19.38117859221232], [-97.60300636036432, 19.383457713696934]]]}}, {"type": "Feature", "properties": {"SECCION": 880, "municipio": 109}, "geometry": {"type": "Polygon", "coordinates": [[[-97.62626664181631, 19.377146180046797], [-97.62590039352095, 19.376929677022815], [-97.62546134443093, 19.376670137056067], [-97.62502029934663, 19.376408515504608], [-97.62459621344581, 19.376164732397744], [-97.62417386417172, 19.375901953979223], [-97.62383886956172, 19.375699715257888], [-97.62364684954723, 19.375597717459677], [-97.62341551959685, 19.37547222504522], [-97.623321855974, 19.375421414048486], [-97.62314972708467, 19.375321052834813], [-97.62289422422937, 19.37517533146186], [-97.62242776293807, 19.374912945402297], [-97.62202119198241, 19.37468531892339], [-97.62159469446061, 19.374438475255083], [-97.62183479317694, 19.37405243569313], [-97.6220193455112, 19.37377462356814], [-97.62205964137422, 19.373713964845056], [-97.62226786981817, 19.373350541769128], [-97.62254610310481, 19.372920055604542], [-97.62278856251537, 19.37251460633714], [-97.6230245860378, 19.37212825407973], [-97.62319862241853, 19.371827830021534], [-97.62341012860321, 19.37145571773541], [-97.62382388354656, 19.371543540518697], [-97.62431239329695, 19.371656360068073], [-97.6246144881287, 19.371053589395142], [-97.62464289832577, 19.370986413397816], [-97.6249046021166, 19.370583670048912], [-97.62494236510244, 19.370528163860005], [-97.62524191558985, 19.370642405706665], [-97.62526159398541, 19.37064986146979], [-97.62550648698387, 19.370743309666867], [-97.62580823429231, 19.37085800469636], [-97.62620600345603, 19.37103171406285], [-97.62649445184664, 19.371162961880078], [-97.62721176345451, 19.371422351916127], [-97.6277497749004, 19.37161377019461], [-97.62813915781634, 19.371741613030814], [-97.62861613890675, 19.371886769496783], [-97.6290291368892, 19.372050161287262], [-97.62796429018894, 19.374124650267827], [-97.62671751731874, 19.375831845983924], [-97.62632103300547, 19.376985652755643], [-97.62626664181631, 19.377146180046797]]]}}, {"type": "Feature", "properties": {"SECCION": 881, "municipio": 109}, "geometry": {"type": "Polygon", "coordinates": [[[-97.63831831085415, 19.33933051069896], [-97.63802637587723, 19.33969657924105], [-97.6377932192345, 19.339899047747256], [-97.63744303717752, 19.340305461131642], [-97.63709267485932, 19.340752958215067], [-97.63685897985256, 19.341078678813204], [-97.63604211259316, 19.341972191175913], [-97.63563367559766, 19.34241894574781], [-97.63522434129611, 19.343071121523284], [-97.63510641603897, 19.343480487125333], [-97.63487128006169, 19.344134880163146], [-97.63457789486048, 19.34482961749934], [-97.63446068343117, 19.34507464469789], [-97.6344011812749, 19.34540258041601], [-97.63422446633113, 19.345975543050614], [-97.63410563926458, 19.346590329705442], [-97.63410420437516, 19.346919005067058], [-97.63404398304847, 19.3474112781863], [-97.63398394067337, 19.34786246682445], [-97.633924256753, 19.348231486579905], [-97.6338056058409, 19.348805188316085], [-97.63098763709175, 19.355753984910702], [-97.63449026045365, 19.358475012144595], [-97.63932235780533, 19.36222859625009], [-97.63874072271926, 19.362426631988953], [-97.6382750565106, 19.362667228011844], [-97.63798396979487, 19.362827870978684], [-97.63757637595492, 19.36306920404863], [-97.63734318362052, 19.363271669413862], [-97.63728493016343, 19.363312014602712], [-97.63722685555716, 19.36331127537388], [-97.63699384139696, 19.363472655845932], [-97.63676046878372, 19.363716204765165], [-97.63658570743975, 19.36383723964967], [-97.63617810914302, 19.364078569283553], [-97.63582894310176, 19.364238468899483], [-97.63571243476042, 19.3643191581916], [-97.63553767203783, 19.364440191975532], [-97.63501374127196, 19.36472112350661], [-97.63437311964334, 19.36512382610885], [-97.6339074398511, 19.365364410028263], [-97.63315084235224, 19.36572454292406], [-97.63256918845623, 19.365922557652503], [-97.63216230025331, 19.365999540348458], [-97.63175541172751, 19.366076522110642], [-97.63140605716907, 19.366277496972028], [-97.63111477734883, 19.366479212370614], [-97.63070698442084, 19.366761613064217], [-97.63006616418207, 19.36720538354522], [-97.6295418541862, 19.367568466631763], [-97.62919267486997, 19.3677283526038], [-97.62866872357613, 19.368009264458742], [-97.627911922138, 19.368410458240504], [-97.6273874223117, 19.36881461875606], [-97.62697889123369, 19.369261347091182], [-97.62639630985143, 19.369664761752187], [-97.62592922168146, 19.369644776904295], [-97.62575133229637, 19.369637165408246], [-97.62556083330782, 19.369629014181864], [-97.62298054763318, 19.369005688489835], [-97.62080463531878, 19.368539202298397], [-97.61995584964887, 19.37001405188796], [-97.61846980132559, 19.3697402714516], [-97.61813833494335, 19.370310587471227], [-97.61768781768528, 19.37019603236741], [-97.617167477337, 19.370069327047858], [-97.61668314857307, 19.369964316056066], [-97.61620196919223, 19.369842623982628], [-97.6151325304418, 19.369619129076405], [-97.61366452960745, 19.369309761661164], [-97.61338078508706, 19.369065594573975], [-97.61240583477989, 19.36817051563284], [-97.61200208435658, 19.36754902492682], [-97.61182934057575, 19.36721811102538], [-97.61171430198229, 19.366970112376144], [-97.61160019051744, 19.366516693860202], [-97.61148663573435, 19.365940023401798], [-97.61143208315426, 19.365158680578066], [-97.61143504905768, 19.364501337105523], [-97.61120683074282, 19.36359449973942], [-97.6111509816762, 19.363100744562576], [-97.61109531825709, 19.362565905392103], [-97.61109680152762, 19.362237233614117], [-97.61104002591267, 19.361948898250308], [-97.61092610431429, 19.361454395427973], [-97.61075299740654, 19.361205648767932], [-97.6106368510842, 19.36120415346552], [-97.6104337805898, 19.361160452541686], [-97.61023071021852, 19.361116751397713], [-97.61005649087376, 19.361114507922757], [-97.60964979338492, 19.36115035645443], [-97.60912694955216, 19.361184707801794], [-97.60889465711732, 19.36118171505142], [-97.60837144103513, 19.361298232077544], [-97.60796455680538, 19.361375160716744], [-97.60784822430749, 19.361414747551837], [-97.60744078069351, 19.361614926733026], [-97.60709196861167, 19.36169260203264], [-97.60656912301371, 19.361726945889], [-97.60598764403302, 19.361883790744727], [-97.60558094436314, 19.361919630006845], [-97.60523231785854, 19.361956217767368], [-97.60453487747348, 19.362070475120174], [-97.60383762351891, 19.362143645885492], [-97.60313999432604, 19.362298981621176], [-97.60250100005712, 19.362331813410055], [-97.60238485337742, 19.362330312796573], [-97.60197871543753, 19.362242892424796], [-97.60163027569277, 19.362238389375147], [-97.60104897915866, 19.36235413422902], [-97.59994502197513, 19.362463117968588], [-97.59936334711271, 19.362661024864092], [-97.59901415313206, 19.362820851834048], [-97.5986653355727, 19.362898510563028], [-97.59814116535794, 19.363220416128776], [-97.59779272415359, 19.363215905608588], [-97.59709584194174, 19.363206882570555], [-97.5961082142325, 19.36327626281048], [-97.59541076423918, 19.36339048443081], [-97.59477214507469, 19.36334112132249], [-97.59419197922792, 19.363210341592318], [-97.59395968552252, 19.36320732961738], [-97.59332220710274, 19.362911459452373], [-97.59303241044978, 19.362784442078333], [-97.5926845410768, 19.362656670853546], [-97.59216264303133, 19.362485554658114], [-97.5919886138799, 19.362442210159223], [-97.59135057132252, 19.36226958440649], [-97.59117654266538, 19.362226239157998], [-97.59088636815359, 19.362181385810285], [-97.5908284856597, 19.362139548178636], [-97.59071214923107, 19.362179123763767], [-97.59076831719219, 19.362590714123662], [-97.59111428043401, 19.363129325269536], [-97.59117044957212, 19.36354091554776], [-97.59116930702416, 19.363787417349627], [-97.59116759314718, 19.36415717003981], [-97.5911643556437, 19.364855591746917], [-97.59139398583989, 19.3654337782651], [-97.59156725647345, 19.365641458036496], [-97.59174052753924, 19.36584913766604], [-97.5922614845387, 19.366225673862477], [-97.59249188088603, 19.36663952470718], [-97.59244511695006, 19.366704655668002], [-97.59225806082479, 19.366965179363312], [-97.59219960566053, 19.367046592969515], [-97.59214134068226, 19.36708692291795], [-97.59167579094614, 19.367286310884985], [-97.59126850547875, 19.367445367960045], [-97.59080161963107, 19.36793233881877], [-97.59033587531373, 19.36817280668561], [-97.58934497068302, 19.368940569012437], [-97.58911190522348, 19.369101884646174], [-97.58864615528547, 19.36934234779171], [-97.5881809778894, 19.36945955898089], [-97.58794886732204, 19.36941545522936], [-97.58765829863944, 19.3694527631194], [-97.58701870234856, 19.369608789181118], [-97.58655294822171, 19.36984924667015], [-97.58620391944986, 19.369967963661182], [-97.5858554658402, 19.369963429402137], [-97.58550720425788, 19.369917810966808], [-97.58530422778892, 19.369853540029073], [-97.58510125149333, 19.36978926887449], [-97.58498529255775, 19.369746673331377], [-97.58457991725858, 19.369494879636385], [-97.58411627564959, 19.36928341230523], [-97.58373573106545, 19.36911660224272], [-97.58353667730142, 19.369029347449732], [-97.58289881316294, 19.36881560765354], [-97.58266689804118, 19.368730413840403], [-97.58231921857858, 19.368561539131328], [-97.58208749695083, 19.368435261160087], [-97.58185616138398, 19.368226816003006], [-97.58168270831757, 19.36806021110027], [-97.58145118085876, 19.367892848937064], [-97.58127811451845, 19.367644076793624], [-97.58110504868854, 19.367395304512378], [-97.58093198336908, 19.3671465320931], [-97.58075833927406, 19.367021009865052], [-97.58064238357014, 19.366978411737122], [-97.58029451684666, 19.36685061693163], [-97.58006337907891, 19.36660108631367], [-97.57994781045667, 19.366476320908806], [-97.57960033215313, 19.366266358018144], [-97.57936822912677, 19.366222243737944], [-97.57907824567359, 19.36613628791872], [-97.57855538559745, 19.366170550009972], [-97.57820829731553, 19.365878417799376], [-97.57768640727853, 19.365707260452947], [-97.57745449961918, 19.365622060419067], [-97.57710644463226, 19.36553534322889], [-97.57687511968025, 19.36532689233701], [-97.55564391200562, 19.36780946038493], [-97.53201361440698, 19.370569527166335], [-97.53172406458748, 19.370401331860307], [-97.53149238407381, 19.37027499182502], [-97.53120262977248, 19.37014787832604], [-97.53102902416151, 19.37002231093453], [-97.53085541882167, 19.36989674339315], [-97.53085583013662, 19.36981457825768], [-97.53074112185806, 19.369525453649906], [-97.53045239824839, 19.369192926253906], [-97.53027941157899, 19.368944110553816], [-97.53004876347941, 19.368612356074642], [-97.52993385148987, 19.368364313628096], [-97.52976004282851, 19.368279827745617], [-97.5295862343553, 19.36819534170802], [-97.52923799988858, 19.3681496168093], [-97.5290637797095, 19.368147295386667], [-97.52865747219938, 19.368100795549406], [-97.52830985709811, 19.367931821309284], [-97.52813646242757, 19.367765168898693], [-97.52749868930418, 19.367551239843934], [-97.52697665091368, 19.367421022679945], [-97.52656993275447, 19.36745668334183], [-97.5261057618097, 19.367368320843973], [-97.52581560354788, 19.367323364320274], [-97.52529253255332, 19.367398554865193], [-97.52459462055815, 19.367594665626665], [-97.52383904870308, 19.36770783320597], [-97.52360748237362, 19.367560942519187], [-97.52349169936905, 19.367487497074684], [-97.52337591647125, 19.36741405156278], [-97.52337653892, 19.36729080422194], [-97.52314528491435, 19.367082289340395], [-97.5229716891155, 19.36695671483996], [-97.52262449833115, 19.36670556538996], [-97.52236306734311, 19.366722615070646], [-97.52210163632809, 19.36673966437215], [-97.52186872200893, 19.366859807401873], [-97.52163539153848, 19.367062114944453], [-97.5214020604956, 19.36726442214547], [-97.52087898859637, 19.367339599880786], [-97.52035549984126, 19.367496940866005], [-97.51971544745803, 19.36773489146456], [-97.51901711172155, 19.368013145023657], [-97.51855044021141, 19.36841775172032], [-97.51825882155252, 19.368660359623938], [-97.51802548423875, 19.368862662033663], [-97.51773386402432, 19.369105268980416], [-97.51720932180997, 19.369468011956194], [-97.51691790848771, 19.369669535105597], [-97.51662649446479, 19.36987105773628], [-97.51610215682008, 19.370192714859396], [-97.51581074091224, 19.370394236043964], [-97.51551890527011, 19.370677921295634], [-97.51511175912034, 19.370795720200984], [-97.51487935855495, 19.370813147807333], [-97.51464695796187, 19.370830575113548], [-97.51418173697805, 19.37094759336121], [-97.51377500932644, 19.370983224641737], [-97.51342698567304, 19.370896387136682], [-97.51319468999591, 19.370893271443943], [-97.51319490009996, 19.370852189193467], [-97.51273030895418, 19.370845956928168], [-97.51238228628813, 19.37075911747938], [-97.51174347411008, 19.370750544982574], [-97.51156925264729, 19.370748206640325], [-97.51127846241596, 19.370826473466675], [-97.51110403028457, 19.37086521688747], [-97.51069709194647, 19.37094192346179], [-97.5105809442265, 19.370940363909103], [-97.51017379467626, 19.371058151479847], [-97.50982471852112, 19.371176718149723], [-97.50976643363201, 19.37121702028671], [-97.5096496527683, 19.37133870668378], [-97.50959136777972, 19.371379008757366], [-97.50953223862541, 19.37158363953962], [-97.50929867583484, 19.371827011877492], [-97.50923996835404, 19.371949478169856], [-97.50900577105126, 19.372316096568227], [-97.50874823671626, 19.372579639398467], [-97.50805911980379, 19.373284827702147], [-97.50774370702975, 19.372970968616176], [-97.50693785824606, 19.372382979695146], [-97.50647561631494, 19.37217128097989], [-97.50583893570203, 19.371957878678426], [-97.50549474994878, 19.371623016284218], [-97.50514997876364, 19.37132958543116], [-97.50500813398253, 19.371079573404195], [-97.50486628961423, 19.37082956128882], [-97.50417675404452, 19.37024269694454], [-97.50301735866125, 19.369982740521248], [-97.50174637725158, 19.369390183027797], [-97.50160307010775, 19.36924374887703], [-97.5014597632187, 19.369097314628164], [-97.50100518006798, 19.368346986502186], [-97.50060227889333, 19.368052978943727], [-97.4999679753257, 19.367673829486545], [-97.49921562042688, 19.367417835008464], [-97.49858073437582, 19.367080113069], [-97.49817842939193, 19.366744668611855], [-97.49754766876259, 19.36611691948494], [-97.49714536828094, 19.36578147301004], [-97.49599662063707, 19.364775699346513], [-97.4948502442422, 19.363604191520427], [-97.49421891899817, 19.363017864245208], [-97.49359526243722, 19.361892920095723], [-97.493434984011, 19.360896840358475], [-97.49338745382735, 19.360150494518443], [-97.4928272613525, 19.358653232406105], [-97.49215374515816, 19.356947666404107], [-97.4919512625673, 19.35483235244999], [-97.49196010944289, 19.354210873625696], [-97.49184736835277, 19.353961138993835], [-97.4913329584206, 19.353334515479933], [-97.49104993005122, 19.3527930418572], [-97.49071171446418, 19.352043836476383], [-97.49049154982193, 19.351171478797607], [-97.49032421473179, 19.350672580064973], [-97.49015511010926, 19.350297976935778], [-97.48998836693879, 19.349757646073392], [-97.48993731086334, 19.349259891162355], [-97.48976997901096, 19.348760992064918], [-97.48954451027078, 19.348261520703527], [-97.4890912152195, 19.34742830492931], [-97.48852460255263, 19.346386783959158], [-97.48807190790563, 19.345512134297028], [-97.48749881001719, 19.344926361473163], [-97.48709894365665, 19.34442516945363], [-97.48566622458759, 19.342960727872228], [-97.48480542272392, 19.34216492190419], [-97.48394048858562, 19.341659135099793], [-97.48341963747578, 19.341488242994277], [-97.48237971452045, 19.34102215915966], [-97.48156878463287, 19.340806958642077], [-97.48116953864546, 19.340264323527414], [-97.48076970294883, 19.339763119448598], [-97.48025419331968, 19.33921933309512], [-97.4798549553616, 19.338676695566498], [-97.48929644085209, 19.334624317749768], [-97.49851654590442, 19.330666273266534], [-97.50470414186657, 19.328009657076876], [-97.5051111853142, 19.327891874323512], [-97.50551822823934, 19.327774090620437], [-97.50604180956023, 19.32757570181813], [-97.50644927303466, 19.327375751289154], [-97.50691542627078, 19.32705333272166], [-97.50720698186528, 19.326810738104363], [-97.50738157771829, 19.326730912828392], [-97.5079059959589, 19.326368188863828], [-97.50819860124837, 19.325920180661758], [-97.50854947297572, 19.325431868873906], [-97.50869232159245, 19.325299649773083], [-97.50889950147506, 19.325107885756434], [-97.50907556632626, 19.32474048199895], [-97.50936774505571, 19.324374636213115], [-97.50960144506838, 19.324090175653236], [-97.5096628632259, 19.323433636299225], [-97.50948974257959, 19.32322588732813], [-97.50914308224442, 19.322892553750172], [-97.5089697526039, 19.32272588674482], [-97.50885448001756, 19.32255999881093], [-97.50891274694092, 19.32251969561921], [-97.50920345071069, 19.322441426534787], [-97.50955200083281, 19.322405018357657], [-97.50995860751617, 19.322369388363597], [-97.51030726235683, 19.3223124375136], [-97.51048158970451, 19.322283961832266], [-97.51065591700376, 19.32225548598027], [-97.51141086317018, 19.322224524126174], [-97.51204990537755, 19.322150920354552], [-97.51280506046368, 19.322078870217315], [-97.51292263819045, 19.32179284881493], [-97.5132711866285, 19.321756433377374], [-97.51390980874231, 19.321764987867144], [-97.51420030047919, 19.32172779304676], [-97.51478044871595, 19.321817731979074], [-97.51518684502993, 19.321823172652444], [-97.51582588495008, 19.321749555424297], [-97.51629096300455, 19.32163252301674], [-97.5168723618074, 19.321475960140933], [-97.51762813717973, 19.321280642026284], [-97.51809258924416, 19.321286852516334], [-97.5185576647766, 19.321169814125977], [-97.51902273972777, 19.32105277450368], [-97.51977809627702, 19.320939612345686], [-97.52041713186102, 19.320865978651618], [-97.52117227988788, 19.320793893208254], [-97.5218111076763, 19.32076133717342], [-97.5228579840656, 19.32040554113305], [-97.52320632213285, 19.32041018900583], [-97.52358368844978, 19.320415223451693], [-97.52396105484722, 19.320420257118045], [-97.52430836147946, 19.320630316244934], [-97.52436476736717, 19.32095975185109], [-97.5243052663942, 19.321246556289996], [-97.52430423465623, 19.321451969628978], [-97.52430196475723, 19.321903878958505], [-97.52429990112267, 19.32231470560219], [-97.52453171672988, 19.32239996793553], [-97.52487923439885, 19.322568943583985], [-97.52540154281208, 19.322616992491874], [-97.5259817029085, 19.322706896383625], [-97.52679347566979, 19.322923140750213], [-97.52725793443551, 19.32292932821864], [-97.52772321541352, 19.322771183620162], [-97.52795647197493, 19.322568862672572], [-97.52836369416296, 19.32240994318672], [-97.52859592298199, 19.322413035022507], [-97.52911823277023, 19.322461073321456], [-97.52958289580195, 19.322426172030646], [-97.5298731820299, 19.322430034841606], [-97.53022193534407, 19.32235250407064], [-97.53011545104452, 19.3204200690333], [-97.52994148633039, 19.32037666900182], [-97.52965140870883, 19.32033172377128], [-97.52918736695507, 19.320243377360274], [-97.52889687950425, 19.320280596465942], [-97.52831569898169, 19.32039611600534], [-97.52773575059967, 19.320265137240668], [-97.52767789965722, 19.32022328135339], [-97.52756240337172, 19.320098486798223], [-97.52750496357626, 19.319974465401575], [-97.52756445841727, 19.319687659480113], [-97.52768242006321, 19.319319461196173], [-97.52808983954628, 19.31911945900915], [-97.52867122080367, 19.318962857131222], [-97.52901894142317, 19.319090741990564], [-97.52936748278101, 19.3190542951529], [-97.52954288087051, 19.318810116239778], [-97.52989060197552, 19.318937999462282], [-97.5302391429355, 19.318901550923552], [-97.53047239079245, 19.318699226107334], [-97.5307632846083, 19.318579838689615], [-97.53128640157296, 19.318463538823735], [-97.53146036474769, 19.318506937470726], [-97.5316341235643, 19.318591418766974], [-97.53204031086241, 19.31863790419873], [-97.53204848462529, 19.316994591400572], [-97.53619385487634, 19.316541268120343], [-97.53806538850317, 19.31623172820422], [-97.55650444029821, 19.31431876368496], [-97.55775044457809, 19.31422163799733], [-97.56417106943269, 19.31372101451435], [-97.56434837381339, 19.313065964233903], [-97.56434994323011, 19.31273729700817], [-97.56440995956638, 19.31232722426711], [-97.56458941809713, 19.31122025594763], [-97.56476926572769, 19.310031120319763], [-97.56483104347568, 19.309251296350077], [-97.56501049436345, 19.308144326855814], [-97.5651299307797, 19.30744743037703], [-97.56542548195156, 19.30634198183714], [-97.56572063727467, 19.30531869935394], [-97.56601461490769, 19.304541916862345], [-97.56619189956143, 19.303886863041072], [-97.56636957360413, 19.303149641948988], [-97.56666471601477, 19.302126356844706], [-97.56701790508583, 19.30110383113978], [-97.56737050382232, 19.30020455489276], [-97.56772270824844, 19.299387444673112], [-97.56790017421812, 19.298691304511397], [-97.5683119811492, 19.297546284192325], [-97.56848729885932, 19.297302062022467], [-97.56887008462597, 19.296760068002822], [-97.56927015202353, 19.296253357085465], [-97.56936679837509, 19.29546469457127], [-97.5694869816899, 19.294603458234786], [-97.5695477535823, 19.29402904746187], [-97.56984168960778, 19.293252255414256], [-97.57013562263077, 19.292475462650973], [-97.57025385564373, 19.292025061116355], [-97.57031481756336, 19.291409566096874], [-97.5703157889474, 19.291204148090284], [-97.57031656603975, 19.29103981368169], [-97.57037772134298, 19.29038323493202], [-97.57043664243437, 19.290199117592557], [-97.57049556338062, 19.29001500022201], [-97.57073033847561, 19.289402119653893], [-97.5709659554065, 19.288747478260067], [-97.57126282967842, 19.288084574501664], [-97.571552819519, 19.28739930414124], [-97.57172773306688, 19.28723724487969], [-97.57172831460485, 19.28711399394827], [-97.57229822516507, 19.286792176223322], [-97.57270530824374, 19.286661282494688], [-97.57306245941037, 19.286448613369533], [-97.5749346015574, 19.283997181878284], [-97.57612875984354, 19.278993750965252], [-97.57657356065131, 19.275882556434247], [-97.57670006127289, 19.275646854512114], [-97.57695041094014, 19.27522604499195], [-97.57753659493218, 19.27400109488423], [-97.57777183426036, 19.27334677888258], [-97.57812468944373, 19.272365304002886], [-97.57841892382035, 19.271506323638448], [-97.57853826647312, 19.270809410331136], [-97.57865799150221, 19.270030329154274], [-97.57871756583798, 19.269702414245884], [-97.57883633020029, 19.26912875198148], [-97.57930371453013, 19.268477455653105], [-97.57977186096109, 19.267661822380134], [-97.58018253756823, 19.26672218065273], [-97.58041813675088, 19.265985691632014], [-97.58071196330651, 19.26520887328972], [-97.58088913703045, 19.264553796003458], [-97.58112511145718, 19.26373513768762], [-97.58153576919595, 19.262795491410035], [-97.58177021037817, 19.262305503146717], [-97.58206345056904, 19.26165193330097], [-97.58229807908347, 19.26112086015839], [-97.58264916105142, 19.260509127409893], [-97.58311821854464, 19.259488062576747], [-97.58347005520984, 19.258711991853673], [-97.58376404263612, 19.257894082282355], [-97.58382417165024, 19.257442912415584], [-97.58400113247855, 19.256828914238373], [-97.5844117542982, 19.25588925866805], [-97.58458928101551, 19.25515200756271], [-97.5849437592618, 19.253800756408378], [-97.5850613475652, 19.253473591139397], [-97.58506343627587, 19.253021666909557], [-97.5852405764901, 19.252366582620798], [-97.58541714582536, 19.251834750125422], [-97.58547660286402, 19.251527373121387], [-97.58553605964197, 19.251219996073996], [-97.58577141869868, 19.250524580049326], [-97.58600544848045, 19.250116751903537], [-97.58635686986885, 19.24942284083292], [-97.58647407279119, 19.24917784225188], [-97.5866510128952, 19.248563839778228], [-97.58682814087646, 19.247908752935377], [-97.58712322450536, 19.246844330238567], [-97.5874765248537, 19.245739575095783], [-97.58759523599399, 19.24516590263898], [-97.58783038709106, 19.24451156652179], [-97.58794909583266, 19.24393789362614], [-97.58824265225259, 19.243202140719323], [-97.58836022512644, 19.242874972064048], [-97.58865491020455, 19.24189271338967], [-97.5888318326182, 19.241278707318433], [-97.5888919386265, 19.240827533722268], [-97.58918472999275, 19.24025611503426], [-97.58924389151508, 19.240010361941216], [-97.58936202540205, 19.23955993979924], [-97.58936296817302, 19.239354519026282], [-97.58936391092361, 19.23914909824862], [-97.5893650421974, 19.238902593309387], [-97.58942533395677, 19.23841033511643], [-97.58954327742238, 19.238000996840757], [-97.58971924925727, 19.23759241002824], [-97.5897785971726, 19.23730557241068], [-97.58983700288611, 19.23722415561667], [-97.58995456757843, 19.2368969852576], [-97.59013053705384, 19.23648839786224], [-97.59030612908488, 19.236161978595018], [-97.59054012519938, 19.235754142017836], [-97.59065787543429, 19.235385886806434], [-97.59077562509138, 19.23501763147161], [-97.59100980632091, 19.234568709863787], [-97.5911275074936, 19.23421072523549], [-97.59124537827044, 19.233852831208996], [-97.59136098167926, 19.233915868804917], [-97.59165055692652, 19.23404287614268], [-97.59199816052477, 19.23417063384505], [-97.59234595241573, 19.23425730669174], [-97.59263590439942, 19.234302144087966], [-97.59315778094314, 19.234391067116274], [-97.5936790959849, 19.234603241438418], [-97.59385243083513, 19.23476982915298], [-97.59396755050692, 19.234976750803973], [-97.5943722502528, 19.23531067568447], [-97.59489319570787, 19.23560501533938], [-97.59535667549511, 19.235775351053015], [-97.59593640037903, 19.235906100563856], [-97.59657303476952, 19.236284103425128], [-97.59686149882839, 19.236657608763498], [-97.5970342793203, 19.236947446652568], [-97.59709156196904, 19.23711253307775], [-97.59726397019882, 19.237484539384045], [-97.59726229120267, 19.237854298042397], [-97.61222495497051, 19.240060122892487], [-97.61643387407523, 19.23317037930757], [-97.626256724192, 19.24291026528064], [-97.64064023824396, 19.24506533005634], [-97.6410459418556, 19.245193733840065], [-97.64145182185118, 19.245281051770824], [-97.6415673610256, 19.245405777427457], [-97.64168272472796, 19.2455715880129], [-97.64174040666369, 19.245654493282608], [-97.6420288171879, 19.246069019400426], [-97.64220116205334, 19.2464820748764], [-97.64248975055791, 19.246855515390692], [-97.64318580414567, 19.246946504854378], [-97.64336025582081, 19.246866539278983], [-97.64376771777894, 19.24658408719565], [-97.64417465325238, 19.246424889199563], [-97.6445233795231, 19.246306040885766], [-97.64481424671047, 19.24614537253084], [-97.64510423933655, 19.24619012890493], [-97.64550942567641, 19.246441778307414], [-97.64579819660065, 19.24677412900337], [-97.64602858563799, 19.247187915476818], [-97.64614308229326, 19.247559148850005], [-97.64649006499315, 19.247851147470204], [-97.64683722333903, 19.24810206043331], [-97.64706883718621, 19.24822825034017], [-97.6473586600066, 19.248314088463005], [-97.64787974978307, 19.248608285242305], [-97.64805193776854, 19.249062421230438], [-97.64816626597649, 19.24947473870014], [-97.64839596825487, 19.25005286299082], [-97.64856728882359, 19.250712424009805], [-97.64856502644757, 19.251246530049425], [-97.648679531117, 19.25161776219414], [-97.64868275267858, 19.251844331544003], [-97.64867796497659, 19.251987527897345], [-97.64867692084799, 19.252234038357894], [-97.64861697065987, 19.25268524094817], [-97.64855702006182, 19.253136443477143], [-97.64855510524754, 19.25358837923887], [-97.64832069664854, 19.25411955177542], [-97.64826126696435, 19.254447498879166], [-97.64820253374485, 19.254611105707184], [-97.64820201118819, 19.25473436088038], [-97.64820131443511, 19.254898701108758], [-97.64802598485345, 19.255184096124022], [-97.64790869148165, 19.255470224464737], [-97.64779122336681, 19.255797437742974], [-97.64776150762405, 19.255961411134667], [-97.64773179181152, 19.256125384515077], [-97.63150139030945, 19.286025859846486], [-97.62456083050009, 19.298808068502556], [-97.6237410682434, 19.300317638480973], [-97.64623960000074, 19.306324085301444], [-97.64349791412361, 19.310013344037756], [-97.64251421344461, 19.31146406829365], [-97.64181700200598, 19.312821613556242], [-97.64129194796938, 19.313903028863216], [-97.64101646373832, 19.3145360068405], [-97.64075029692009, 19.315240766438695], [-97.64026697109756, 19.316523983397058], [-97.63771428463755, 19.318249289918885], [-97.63466740662936, 19.31675300863217], [-97.63460973672548, 19.31672468697387], [-97.63275887260774, 19.315819643185765], [-97.63272479137618, 19.315875054255876], [-97.63260198395548, 19.31602727478811], [-97.63257371817548, 19.316062310336694], [-97.63241020757518, 19.31625733384082], [-97.63228210218435, 19.316520840021358], [-97.63219915240272, 19.316767607740594], [-97.63217030341619, 19.316997794503244], [-97.63216810327339, 19.317262244594033], [-97.63214869746784, 19.3174326877023], [-97.63217413923853, 19.317612050747847], [-97.63221759148031, 19.31780013248467], [-97.63226066526484, 19.318022274886452], [-97.6322859658955, 19.31821862343713], [-97.63233737050382, 19.318526212950612], [-97.63238082385716, 19.31871420430797], [-97.63243046416997, 19.319165262937414], [-97.63243939908173, 19.319212404433596], [-97.63244062789637, 19.319247742113898], [-97.63244019450235, 19.31928839822529], [-97.63244728721847, 19.31931673224861], [-97.63243508854619, 19.319341578527446], [-97.6324379540138, 19.319374669625052], [-97.63243512769772, 19.319394074572877], [-97.63243707380002, 19.319423273549468], [-97.63244657024978, 19.319460118884024], [-97.63244402163487, 19.31949190443011], [-97.6324489973492, 19.31952302355856], [-97.63245151163669, 19.31957544780707], [-97.63244329667212, 19.319624809923358], [-97.63244056916416, 19.319678098410623], [-97.63244573822496, 19.31970885757204], [-97.63245158012083, 19.319773143160646], [-97.63243662151726, 19.319797968743092], [-97.63241891804817, 19.31982096666034], [-97.63242473449777, 19.319853989529268], [-97.63240970297156, 19.31988757891233], [-97.63239604664695, 19.319916028419893], [-97.63235874713382, 19.320006464280677], [-97.63235345934035, 19.320047174341134], [-97.63233154028886, 19.32008495871322], [-97.63231591049866, 19.32015613091472], [-97.6323146516555, 19.320181601337783], [-97.63230028219637, 19.320227122416597], [-97.63226099183619, 19.32024797064612], [-97.63224909179209, 19.320282667743303], [-97.6322168174385, 19.320341065534976], [-97.63219316647492, 19.320381095750207], [-97.63218253172977, 19.320400984255187], [-97.63216625519986, 19.320469802379147], [-97.63216447744588, 19.320534753655732], [-97.63215625662625, 19.320573363563376], [-97.63213856173711, 19.320606752232344], [-97.63213119636329, 19.320656933880322], [-97.63211825196633, 19.320679877097277], [-97.63198328779015, 19.320783494880263], [-97.63194750272974, 19.32080626676017], [-97.6318601292082, 19.320852324428643], [-97.63184168373617, 19.320872967504048], [-97.63179344205521, 19.32091724053723], [-97.63179432245155, 19.32097154995607], [-97.63174142958967, 19.32106006158837], [-97.63172619687005, 19.321072054758787], [-97.63170704270591, 19.321109227300784], [-97.63170644698833, 19.321157923689263], [-97.63165045884712, 19.321206656264476], [-97.63159984866002, 19.321238171539722], [-97.63156727929956, 19.321274791638814], [-97.63154545165794, 19.32130155337989], [-97.63144993345591, 19.321377005148914], [-97.63144519569272, 19.32140877423564], [-97.63130378491019, 19.321589234399838], [-97.63128994429536, 19.321605484617884], [-97.63126684324334, 19.321636573758948], [-97.63124703212516, 19.321661182094054], [-97.63119387885708, 19.32167804079711], [-97.63113320451966, 19.321706589063023], [-97.63111374886007, 19.321722797121115], [-97.63108456029273, 19.321742004160875], [-97.63100973345358, 19.32176710305366], [-97.63097467293346, 19.32178283254283], [-97.63095375358057, 19.321803366590256], [-97.63086921836195, 19.321919921211606], [-97.63085831172954, 19.321949565819864], [-97.63082951540282, 19.321978805059985], [-97.63079302301826, 19.322029310074083], [-97.6307574334698, 19.322062835294748], [-97.63073081589665, 19.322081880866055], [-97.6306701510262, 19.322132114008816], [-97.63063141489766, 19.322143478832825], [-97.63057326332601, 19.32215478821472], [-97.63054677131913, 19.32218160514844], [-97.63048193104119, 19.322207501630054], [-97.63045743833548, 19.322234243208893], [-97.63042386456304, 19.322265705352113], [-97.63037624204867, 19.322304109597944], [-97.63033265912465, 19.322348868951547], [-97.63026747073975, 19.322439365876424], [-97.63021441590742, 19.322478632814367], [-97.6301262703478, 19.322514383410507], [-97.63007908108743, 19.322546466041985], [-97.6300192243757, 19.322579628104215], [-97.62997333281744, 19.32261587673978], [-97.62994513482876, 19.322630392611536], [-97.62990861135258, 19.322661742135097], [-97.62986241486634, 19.322677478085012], [-97.62979051738188, 19.322705038008593], [-97.62976241603992, 19.322719373868328], [-97.62972805981529, 19.322730500335226], [-97.62969794406843, 19.322746718483092], [-97.62961014178204, 19.322775514134598], [-97.6295766234871, 19.322800290324825], [-97.629549075807, 19.322816708452454], [-97.62952033786155, 19.32283890028785], [-97.6295098161208, 19.322868005564473], [-97.62948099805844, 19.322888389710457], [-97.62946540340346, 19.322909505706978], [-97.62944979343537, 19.322921044061477], [-97.6294261587367, 19.322958995830483], [-97.62938095301097, 19.32297004068838], [-97.62935623680607, 19.322977896433652], [-97.6293357535403, 19.3229917473548], [-97.62928892259718, 19.3230150681188], [-97.62922572608569, 19.323037814087606], [-97.62916810015653, 19.323065932793206], [-97.62912785154357, 19.323076020953756], [-97.62904863544433, 19.323102350950265], [-97.62898124211623, 19.32311476492488], [-97.62891120134036, 19.323125080827612], [-97.62885421494667, 19.32314498202416], [-97.62880237227208, 19.32316437975349], [-97.62876028541713, 19.323189452770897], [-97.62869647761228, 19.323205598110544], [-97.6286662339136, 19.323214315733967], [-97.62860363390773, 19.32323399392785], [-97.62855775960792, 19.32324530460839], [-97.62849000151911, 19.32326720282078], [-97.62836560107459, 19.323290572420383], [-97.62832147013987, 19.32330966659397], [-97.62824589217215, 19.323333403327233], [-97.62775626636117, 19.323520276173493], [-97.62770967757758, 19.323548748507786], [-97.62765022843232, 19.323555800517408], [-97.62764262265654, 19.32358899353527], [-97.6276149341175, 19.32359944693075], [-97.62757900462918, 19.32365076864174], [-97.62754947754622, 19.32365343775027], [-97.62752356650894, 19.323690378215186], [-97.62744770597197, 19.323736520252538], [-97.62741288496309, 19.323757672051332], [-97.62755444545425, 19.325007428973475], [-97.62762146679482, 19.325204123218132], [-97.63104139105562, 19.33433010669622], [-97.63107463737933, 19.334402876019027], [-97.63109382286066, 19.334492633851273], [-97.63098636726777, 19.33473863493152], [-97.63094956643621, 19.334938473204602], [-97.63094795408999, 19.3351319052795], [-97.63095347952871, 19.335312049985404], [-97.63094564445608, 19.336026148589557], [-97.63094462525837, 19.336119037705743], [-97.63097884755203, 19.336275668260182], [-97.63098570561537, 19.336352104152237], [-97.63099256368272, 19.33642854004371], [-97.63138413459914, 19.336481189656404], [-97.63150508192737, 19.336491493939562], [-97.63165679308494, 19.33650217631995], [-97.63829827705325, 19.337674965875422], [-97.63892537361205, 19.337882703776692], [-97.63831831085415, 19.33933051069896]]]}}, {"type": "Feature", "properties": {"SECCION": 882, "municipio": 109}, "geometry": {"type": "Polygon", "coordinates": [[[-97.57657356065131, 19.275882556434247], [-97.57612875984354, 19.278993750965252], [-97.5749346015574, 19.283997181878284], [-97.57306245941037, 19.286448613369533], [-97.57270530824374, 19.286661282494688], [-97.57229822516507, 19.286792176223322], [-97.57172831460485, 19.28711399394827], [-97.57172773306688, 19.28723724487969], [-97.571552819519, 19.28739930414124], [-97.57126282967842, 19.288084574501664], [-97.5709659554065, 19.288747478260067], [-97.57073033847561, 19.289402119653893], [-97.57049556338062, 19.29001500022201], [-97.57043664243437, 19.290199117592557], [-97.57037772134298, 19.29038323493202], [-97.57031656603975, 19.29103981368169], [-97.5703157889474, 19.291204148090284], [-97.57031481756336, 19.291409566096874], [-97.57025385564373, 19.292025061116355], [-97.57013562263077, 19.292475462650973], [-97.56984168960778, 19.293252255414256], [-97.5695477535823, 19.29402904746187], [-97.5694869816899, 19.294603458234786], [-97.56936679837509, 19.29546469457127], [-97.56927015202353, 19.296253357085465], [-97.56887008462597, 19.296760068002822], [-97.56848729885932, 19.297302062022467], [-97.5683119811492, 19.297546284192325], [-97.56790017421812, 19.298691304511397], [-97.56772270824844, 19.299387444673112], [-97.56737050382232, 19.30020455489276], [-97.56701790508583, 19.30110383113978], [-97.56666471601477, 19.302126356844706], [-97.56636957360413, 19.303149641948988], [-97.56619189956143, 19.303886863041072], [-97.56601461490769, 19.304541916862345], [-97.56572063727467, 19.30531869935394], [-97.56542548195156, 19.30634198183714], [-97.5651299307797, 19.30744743037703], [-97.56501049436345, 19.308144326855814], [-97.56483104347568, 19.309251296350077], [-97.56476926572769, 19.310031120319763], [-97.56458941809713, 19.31122025594763], [-97.56440995956638, 19.31232722426711], [-97.56434994323011, 19.31273729700817], [-97.56434837381339, 19.313065964233903], [-97.56417106943269, 19.31372101451435], [-97.55775044457809, 19.31422163799733], [-97.55650444029821, 19.31431876368496], [-97.5428758919662, 19.29059499443172], [-97.53745692182486, 19.28115992746679], [-97.53737178191558, 19.28101167955305], [-97.531868283872, 19.271428231215143], [-97.53181085503272, 19.271304211441706], [-97.53157971566519, 19.27109571334559], [-97.53149316578404, 19.27099184960672], [-97.53140661601019, 19.270887985833006], [-97.53129135222102, 19.270722112069976], [-97.53117608865702, 19.270556238246655], [-97.53082907700924, 19.270305114474127], [-97.53059753273446, 19.270178781300682], [-97.5302495035052, 19.270133071531802], [-97.53001714428717, 19.270171069650797], [-97.52966789126512, 19.270371856722658], [-97.5288477904256, 19.271881125625967], [-97.52802767381634, 19.27339038961229], [-97.52776401407102, 19.273885046245788], [-97.52750035266124, 19.274379702368023], [-97.52697302484786, 19.275369013078446], [-97.52591834924417, 19.2773476283621], [-97.52586030799881, 19.27734685562805], [-97.52571520489377, 19.277344923712516], [-97.5255701018006, 19.277342991681937], [-97.52535270371145, 19.277288739818303], [-97.52524400472723, 19.277261613792856], [-97.52513530578327, 19.277234487705105], [-97.52470051040964, 19.277125982730013], [-97.52417875681111, 19.276995775442305], [-97.52359855182353, 19.27694695898146], [-97.52278618330331, 19.27689504601328], [-97.52220577340846, 19.276887308007556], [-97.52197402161566, 19.276802046641933], [-97.52133515892339, 19.276875697547624], [-97.52075413041996, 19.276991203346185], [-97.52011444065556, 19.277229181057503], [-97.5198234090677, 19.277389639140242], [-97.519124848322, 19.277791169589428], [-97.51877577359427, 19.27795085095843], [-97.51796153952455, 19.278268661043995], [-97.51755400701512, 19.27850973011969], [-97.51691451474969, 19.278706613158178], [-97.51644976809844, 19.278782573084992], [-97.51586997618818, 19.27865156640033], [-97.51563864119176, 19.27848413165677], [-97.51540772211756, 19.27823453124642], [-97.51505968238293, 19.27818879172679], [-97.51482585450985, 19.278514348336238], [-97.51430244246771, 19.27871277452902], [-97.51389532028197, 19.278871669655476], [-97.51325707278018, 19.27882204353145], [-97.51302574045877, 19.27865460564293], [-97.51256411940123, 19.278114315818936], [-97.5122181661974, 19.277657744489364], [-97.5121037525017, 19.2773275291249], [-97.51187450921253, 19.27674926352847], [-97.51211084190142, 19.27593071903973], [-97.51222900726034, 19.275521446595068], [-97.51234717196228, 19.275112174017085], [-97.51258224929865, 19.274540124467702], [-97.51305010831206, 19.273847933506648], [-97.51351941988563, 19.272868162198506], [-97.51410355597959, 19.2721364381741], [-97.51457181690336, 19.271362076823912], [-97.51486574986603, 19.270626468499973], [-97.51504173450739, 19.27025905208133], [-97.51556885342261, 19.26932113238409], [-97.51568596705367, 19.269117270260704], [-97.51626883562459, 19.268632034045815], [-97.51667655150865, 19.26834988331271], [-97.51692362655301, 19.268271013255283], [-97.51717070138282, 19.268192142847326], [-97.5176648503987, 19.26803440097983], [-97.51923455527194, 19.267521246095967], [-97.52045499528431, 19.267208846278614], [-97.52126834498027, 19.26705535216845], [-97.52175268083502, 19.26691203789722], [-97.52219838575706, 19.26678015307898], [-97.52266330225697, 19.266663093119426], [-97.5231860499931, 19.266587888171923], [-97.52359210626872, 19.266634384007325], [-97.52388229334615, 19.266638249844416], [-97.52446266764365, 19.26664598013902], [-97.52498459446151, 19.26673510167559], [-97.52568104442157, 19.266744373638474], [-97.52620338207117, 19.2667513258722], [-97.5272498986901, 19.266395479204967], [-97.52759853219705, 19.266317945218024], [-97.52794736978092, 19.26619932756692], [-97.52835403999912, 19.26612256389836], [-97.52864647280798, 19.26567450922789], [-97.5282993738284, 19.26535450259099], [-97.52760650500164, 19.264715709245632], [-97.52808429841221, 19.264628845812652], [-97.52844885631521, 19.26456256782111], [-97.52929120633827, 19.26440942240792], [-97.53102905383616, 19.265089883334046], [-97.53209516359195, 19.26391223505226], [-97.54164986913514, 19.25335680908281], [-97.53872153583852, 19.251007212989563], [-97.53083787757029, 19.24468108408243], [-97.5278812718373, 19.242308395325228], [-97.52952549806388, 19.239658641783354], [-97.53497383820174, 19.230877599281627], [-97.54375104863772, 19.239004479413268], [-97.54734402819889, 19.24003794980085], [-97.5519098366331, 19.23188086331699], [-97.55310060283529, 19.230221643540613], [-97.55426156778462, 19.228515519955526], [-97.55536262059431, 19.22711238832816], [-97.55710911061915, 19.22463584591686], [-97.56626153032913, 19.228001574782635], [-97.56923724034642, 19.22454812069329], [-97.5903769562904, 19.23336900487249], [-97.59084004834594, 19.233621519780847], [-97.59112943462584, 19.233789612098214], [-97.59118732135472, 19.233821176300356], [-97.59124537827044, 19.233852831208996], [-97.5911275074936, 19.23421072523549], [-97.59100980632091, 19.234568709863787], [-97.59077562509138, 19.23501763147161], [-97.59065787543429, 19.235385886806434], [-97.59054012519938, 19.235754142017836], [-97.59030612908488, 19.236161978595018], [-97.59013053705384, 19.23648839786224], [-97.58995456757843, 19.2368969852576], [-97.58983700288611, 19.23722415561667], [-97.5897785971726, 19.23730557241068], [-97.58971924925727, 19.23759241002824], [-97.58954327742238, 19.238000996840757], [-97.58942533395677, 19.23841033511643], [-97.5893650421974, 19.238902593309387], [-97.58936391092361, 19.23914909824862], [-97.58936296817302, 19.239354519026282], [-97.58936202540205, 19.23955993979924], [-97.58924389151508, 19.240010361941216], [-97.58918472999275, 19.24025611503426], [-97.5888919386265, 19.240827533722268], [-97.5888318326182, 19.241278707318433], [-97.58865491020455, 19.24189271338967], [-97.58836022512644, 19.242874972064048], [-97.58824265225259, 19.243202140719323], [-97.58794909583266, 19.24393789362614], [-97.58783038709106, 19.24451156652179], [-97.58759523599399, 19.24516590263898], [-97.5874765248537, 19.245739575095783], [-97.58712322450536, 19.246844330238567], [-97.58682814087646, 19.247908752935377], [-97.5866510128952, 19.248563839778228], [-97.58647407279119, 19.24917784225188], [-97.58635686986885, 19.24942284083292], [-97.58600544848045, 19.250116751903537], [-97.58577141869868, 19.250524580049326], [-97.58553605964197, 19.251219996073996], [-97.58547660286402, 19.251527373121387], [-97.58541714582536, 19.251834750125422], [-97.5852405764901, 19.252366582620798], [-97.58506343627587, 19.253021666909557], [-97.5850613475652, 19.253473591139397], [-97.5849437592618, 19.253800756408378], [-97.58458928101551, 19.25515200756271], [-97.5844117542982, 19.25588925866805], [-97.58400113247855, 19.256828914238373], [-97.58382417165024, 19.257442912415584], [-97.58376404263612, 19.257894082282355], [-97.58347005520984, 19.258711991853673], [-97.58311821854464, 19.259488062576747], [-97.58264916105142, 19.260509127409893], [-97.58229807908347, 19.26112086015839], [-97.58206345056904, 19.26165193330097], [-97.58177021037817, 19.262305503146717], [-97.58153576919595, 19.262795491410035], [-97.58112511145718, 19.26373513768762], [-97.58088913703045, 19.264553796003458], [-97.58071196330651, 19.26520887328972], [-97.58041813675088, 19.265985691632014], [-97.58018253756823, 19.26672218065273], [-97.57977186096109, 19.267661822380134], [-97.57930371453013, 19.268477455653105], [-97.57883633020029, 19.26912875198148], [-97.57871756583798, 19.269702414245884], [-97.57865799150221, 19.270030329154274], [-97.57853826647312, 19.270809410331136], [-97.57841892382035, 19.271506323638448], [-97.57812468944373, 19.272365304002886], [-97.57777183426036, 19.27334677888258], [-97.57753659493218, 19.27400109488423], [-97.57695041094014, 19.27522604499195], [-97.57670006127289, 19.275646854512114], [-97.57657356065131, 19.275882556434247]]]}}, {"type": "Feature", "properties": {"SECCION": 2747, "municipio": 109}, "geometry": {"type": "Polygon", "coordinates": [[[-97.62118247059443, 19.38081197027813], [-97.62063654273229, 19.382083045301865], [-97.61969483205596, 19.381789287162157], [-97.6196609822109, 19.381968746021126], [-97.61965149947392, 19.38201901975992], [-97.61960402357563, 19.382008924565064], [-97.61871801626893, 19.38182052299814], [-97.61795894006589, 19.38159724530225], [-97.61743763569761, 19.38144537570915], [-97.6167150131836, 19.38124847148709], [-97.61588274948988, 19.381007227891388], [-97.61602358602028, 19.380750547900067], [-97.61618514159915, 19.38047820915662], [-97.61623176965584, 19.380399594538382], [-97.61652062339488, 19.379873995109563], [-97.61694101455869, 19.379143830753254], [-97.61754137395447, 19.379260025939278], [-97.61815531200277, 19.37937899982424], [-97.61870783117378, 19.379486069565473], [-97.61890681470902, 19.379137211020186], [-97.61913833383004, 19.378730189175478], [-97.61933011511346, 19.378393417815364], [-97.61952430100334, 19.378052432509016], [-97.61973074599491, 19.377689927888383], [-97.6199231529431, 19.377352072383726], [-97.62014354806773, 19.376963820004725], [-97.62033529345368, 19.376615093551948], [-97.62054258568888, 19.37626359895766], [-97.62074790523623, 19.375896593904624], [-97.62094170003242, 19.375556920449363], [-97.62117781989842, 19.37519476408848], [-97.62136787763565, 19.374834096476043], [-97.62159469446063, 19.374438475255083], [-97.62202119198241, 19.37468531892339], [-97.62242776293807, 19.374912945402297], [-97.62289422422937, 19.37517533146186], [-97.62314972708467, 19.375321052834813], [-97.62332185597398, 19.375421414048486], [-97.62157618198304, 19.379825105960546], [-97.62154103101437, 19.37990500406081], [-97.6214928133981, 19.380017732348932], [-97.621341166949, 19.380386293539605], [-97.62132999158499, 19.380413454041793], [-97.62130774391493, 19.380473554500846], [-97.62118247059443, 19.38081197027813]]]}}]}